[{"OBJECT_NAME":"STARLINK-32507","OBJECT_ID":"2024-222U","EPOCH":"2026-03-09T13:23:25.500192","MEAN_MOTION":15.27593585,"ECCENTRICITY":0.000155,"INCLINATION":43.0013,"RA_OF_ASC_NODE":136.5179,"ARG_OF_PERICENTER":284.621,"MEAN_ANOMALY":75.447,"EPHEMERIS_TYPE":0,"CLASSIFICATION_TYPE":"U","NORAD_CAT_ID":62132,"ELEMENT_SET_NO":999,"REV_AT_EPOCH":7258,"BSTAR":0.0012123,"MEAN_MOTION_DOT":0.00033261,"MEAN_MOTION_DDOT":0},{"OBJECT_NAME":"FENGYUN 1C DEB","OBJECT_ID":"1999-025EJQ","EPOCH":"2026-03-08T21:27:56.444256","MEAN_MOTION":15.23229897,"ECCENTRICITY":0.00101559,"INCLINATION":98.6645,"RA_OF_ASC_NODE":227.592,"ARG_OF_PERICENTER":263.6857,"MEAN_ANOMALY":96.3219,"EPHEMERIS_TYPE":0,"CLASSIFICATION_TYPE":"U","NORAD_CAT_ID":37470,"ELEMENT_SET_NO":999,"REV_AT_EPOCH":66762,"BSTAR":0.011057202,"MEAN_MOTION_DOT":0.00271626,"MEAN_MOTION_DDOT":0}]
